{"epoch":1784762836,"count":18316,"objects":[{"id":"53807","name":"BLUEWALKER 3","type":"PAYLOAD","l1":"1 53807U 22111AL  26203.45444283  .00004974  00000-0  13842-3 0  9992","l2":"2 53807  53.2274 228.3488 0004777 297.7479  62.3042 15.38664780215635"}]}